NORAD_CAT_ID,OBJECT_NAME,OBJECT_TYPE,EPOCH,MEAN_MOTION,ECCENTRICITY,INCLINATION,RA_OF_ASC_NODE,ARG_OF_PERICENTER,MEAN_ANOMALY,BSTAR,MEAN_MOTION_DOT,MEAN_MOTION_DDOT,TLE_LINE0,TLE_LINE1,TLE_LINE2,SEMIMAJOR_AXIS,PERIOD,APOGEE,PERIGEE,DECAYED
55931.0,STARLINK-5897,PAYLOAD,2024-03-18 02:16:57,14.98331937,0.0002897,69.9992,323.6779,267.5789,92.5039,6.3675e-05,6.67e-06,0.0,0 STARLINK-5897,1 55931U 23037T   24078.09511271  .00000667  00000-0  63675-4 0  9995,2 55931  69.9992 323.6779 0002897 267.5789  92.5039 14.98331937 55743,6950.187,96.107,574.065,570.038,0.0
55931.0,STARLINK-5897,PAYLOAD,2024-03-18 21:30:34,14.98329267,0.000292,69.9991,321.6581,267.9807,92.1017,1.7327e-05,1.14e-06,0.0,0 STARLINK-5897,1 55931U 23037T   24078.89623533  .00000114  00000-0  17327-4 0  9998,2 55931  69.9991 321.6581 0002920 267.9807  92.1017 14.98329267 55524,6950.195,96.107,574.09,570.031,0.0
55931.0,STARLINK-5897,PAYLOAD,2024-03-19 02:18:58,14.98330936,0.0002886,69.9991,321.1528,267.5418,92.5411,3.6544e-05,3.43e-06,0.0,0 STARLINK-5897,1 55931U 23037T   24079.09651364  .00000343  00000-0  36544-4 0  9990,2 55931  69.9991 321.1528 0002886 267.5418  92.5411 14.98330936 55892,6950.19,96.107,574.061,570.049,0.0
55931.0,STARLINK-5897,PAYLOAD,2024-03-20 00:44:51,14.98333019,0.0002868,69.9988,318.7967,263.7205,96.3627,6.946e-06,-1e-07,0.0,0 STARLINK-5897,1 55931U 23037T   24080.03115224 -.00000010  00000-0  69460-5 0  9992,2 55931  69.9988 318.7967 0002868 263.7205  96.3627 14.98333019 55693,6950.184,96.107,574.042,570.055,0.0
55931.0,STARLINK-5897,PAYLOAD,2024-03-20 19:58:28,14.98330951,0.0002655,69.9993,316.7769,253.0096,107.0772,-7.7469e-05,-1.017e-05,0.0,0 STARLINK-5897,1 55931U 23037T   24080.83227625 -.00001017  00000-0 -77469-4 0  9995,2 55931  69.9993 316.7769 0002655 253.0096 107.0772 14.98330951 56156,6950.19,96.107,573.9,570.21,0.0
55931.0,STARLINK-5897,PAYLOAD,2024-03-20 21:34:36,14.98329809,0.0002742,69.9992,316.6085,251.6668,108.4193,-8.0961e-05,-1.059e-05,0.0,0 STARLINK-5897,1 55931U 23037T   24080.89903681 -.00001059  00000-0 -80961-4 0  9991,2 55931  69.9992 316.6085 0002742 251.6668 108.4193 14.98329809 55826,6950.193,96.107,573.964,570.153,0.0
55931.0,STARLINK-5897,PAYLOAD,2024-03-21 08:47:32,14.98332782,0.000281,69.9987,315.4294,265.0054,95.0785,-2.1806e-05,-3.53e-06,0.0,0 STARLINK-5897,1 55931U 23037T   24081.36635382 -.00000353  00000-0 -21806-4 0  9993,2 55931  69.9987 315.4294 0002810 265.0054  95.0785 14.98332782 55892,6950.184,96.107,574.002,570.096,0.0
55931.0,STARLINK-5897,PAYLOAD,2024-03-21 21:36:37,14.98321933,0.0003107,69.9981,314.0814,267.7027,92.3776,0.00025806,2.987e-05,0.0,0 STARLINK-5897,1 55931U 23037T   24081.90043237  .00002987  00000-0  25806-3 0  9991,2 55931  69.9981 314.0814 0003107 267.7027  92.3776 14.98321933 56312,6950.218,96.108,574.242,569.923,0.0
55931.0,STARLINK-5897,PAYLOAD,2024-03-22 00:48:53,14.98330494,0.0003064,69.9983,313.7454,267.6783,92.4025,0.00025527,2.954e-05,0.0,0 STARLINK-5897,1 55931U 23037T   24082.03394679  .00002954  00000-0  25527-3 0  9999,2 55931  69.9983 313.7454 0003064 267.6783  92.4025 14.98330494 56332,6950.191,96.107,574.186,569.927,0.0
55931.0,STARLINK-5897,PAYLOAD,2024-03-22 21:38:38,14.98328846,0.0002756,69.9989,311.558,257.333,102.7521,2.6242e-05,2.2e-06,0.0,0 STARLINK-5897,1 55931U 23037T   24082.90183078  .00000220  00000-0  26242-4 0  9994,2 55931  69.9989 311.5580 0002756 257.3330 102.7521 14.98328846 56126,6950.196,96.107,573.977,570.146,0.0
55931.0,STARLINK-5897,PAYLOAD,2024-03-23 00:50:54,14.98328703,0.0002734,69.9991,311.2218,258.4292,101.656,1.6721e-05,1.07e-06,0.0,0 STARLINK-5897,1 55931U 23037T   24083.03535117  .00000107  00000-0  16721-4 0  9999,2 55931  69.9991 311.2218 0002734 258.4292 101.6560 14.98328703 56481,6950.197,96.107,573.962,570.162,0.0
55931.0,STARLINK-5897,PAYLOAD,2024-03-23 21:40:39,14.9833102,0.0002628,69.9994,309.0341,259.6121,100.4741,-2.2316e-05,-3.59e-06,0.0,0 STARLINK-5897,1 55931U 23037T   24083.90323126 -.00000359  00000-0 -22316-4 0  9998,2 55931  69.9994 309.0341 0002628 259.6121 100.4741 14.98331020 56273,6950.19,96.107,573.881,570.228,0.0
55931.0,STARLINK-5897,PAYLOAD,2024-03-24 00:52:55,14.9833219,0.0002632,69.9991,308.6963,261.7156,98.3704,-2.6842e-06,-1.25e-06,0.0,0 STARLINK-5897,1 55931U 23037T   24084.03674989 -.00000125  00000-0 -26842-5 0  9999,2 55931  69.9991 308.6963 0002632 261.7156  98.3704 14.98332190 56635,6950.186,96.107,573.88,570.222,0.0
55931.0,STARLINK-5897,PAYLOAD,2024-03-24 21:42:40,14.98328824,0.0002593,69.9992,306.5092,261.2353,98.8512,-4.0527e-06,-1.41e-06,0.0,0 STARLINK-5897,1 55931U 23037T   24084.90463217 -.00000141  00000-0 -40527-5 0  9999,2 55931  69.9992 306.5092 0002593 261.2353  98.8512 14.98328824 56424,6950.197,96.107,573.864,570.259,0.0
55931.0,STARLINK-5897,PAYLOAD,2024-03-25 00:54:56,14.98329892,0.0002587,69.9992,306.1725,261.7655,98.321,9.766e-06,2.4e-07,0.0,0 STARLINK-5897,1 55931U 23037T   24085.03815132  .00000024  00000-0  97660-5 0  9999,2 55931  69.9992 306.1725 0002587 261.7655  98.3210 14.98329892 56781,6950.193,96.107,573.856,570.26,0.0
55931.0,STARLINK-5897,PAYLOAD,2024-03-25 13:44:02,14.98315135,0.0001453,70.0005,304.8262,278.713,81.3864,-3.3041e-05,-4.87e-06,0.0,0 STARLINK-5897,1 55931U 23037T   24085.57224888 -.00000487  00000-0 -33041-4 0  9997,2 55931  70.0005 304.8262 0001453 278.7130  81.3864 14.98315135 56868,6950.239,96.108,573.114,571.094,0.0
55931.0,STARLINK-5897,PAYLOAD,2024-03-25 20:08:35,14.98307784,0.0002873,69.9983,304.1506,264.3225,95.7607,-0.00018136,-2.255e-05,0.0,0 STARLINK-5897,1 55931U 23037T   24085.83929837 -.00002255  00000-0 -18136-3 0  9994,2 55931  69.9983 304.1506 0002873 264.3225  95.7607 14.98307784 56907,6950.262,96.108,574.123,570.13,0.0
55931.0,STARLINK-5897,PAYLOAD,2024-03-25 21:44:43,14.98303788,0.0002599,70.0002,303.9837,254.3698,105.7174,-0.00018101,-2.25e-05,0.0,0 STARLINK-5897,1 55931U 23037T   24085.90606184 -.00002250  00000-0 -18101-3 0  9996,2 55931  70.0002 303.9837 0002599 254.3698 105.7174 14.98303788 56578,6950.274,96.109,573.945,570.333,0.0
55931.0,STARLINK-5897,PAYLOAD,2024-03-26 07:21:31,14.98322714,0.0003515,69.9969,302.9714,271.357,88.7186,-0.00010539,-1.35e-05,0.0,0 STARLINK-5897,1 55931U 23037T   24086.30661095 -.00001350  00000-0 -10539-3 0  9990,2 55931  69.9969 302.9714 0003515 271.3570  88.7186 14.98322714 56974,6950.215,96.107,574.523,569.637,0.0
55931.0,STARLINK-5897,PAYLOAD,2024-03-26 15:22:11,14.98322144,0.0003417,69.9971,302.1299,272.5215,87.5552,-6.4844e-06,-1.7e-06,0.0,0 STARLINK-5897,1 55931U 23037T   24086.64041207 -.00000170  00000-0 -64844-5 0  9993,2 55931  69.9971 302.1299 0003417 272.5215  87.5552 14.98322144 56686,6950.217,96.108,574.457,569.707,0.0
55931.0,STARLINK-5897,PAYLOAD,2024-03-26 21:46:43,14.98329651,0.0003245,69.9973,301.4566,271.9981,88.0806,7.966e-05,8.58e-06,0.0,0 STARLINK-5897,1 55931U 23037T   24086.90744619  .00000858  00000-0  79660-4 0  9991,2 55931  69.9973 301.4566 0003245 271.9981  88.0806 14.98329651 56722,6950.194,96.107,574.314,569.804,0.0
55931.0,STARLINK-5897,PAYLOAD,2024-03-26 23:22:51,14.98331055,0.000323,69.9973,301.2883,272.3595,87.7195,9.5362e-05,1.045e-05,0.0,0 STARLINK-5897,1 55931U 23037T   24086.97420502  .00001045  00000-0  95362-4 0  9996,2 55931  69.9973 301.2883 0003230 272.3595  87.7195 14.98331055 57079,6950.19,96.107,574.3,569.81,0.0
55931.0,STARLINK-5897,PAYLOAD,2024-03-27 07:23:31,14.98337588,0.0003315,69.9968,300.446,272.4542,87.6238,0.00010162,1.12e-05,0.0,0 STARLINK-5897,1 55931U 23037T   24087.30800048  .00001120  00000-0  10162-3 0  9999,2 55931  69.9968 300.4460 0003315 272.4542  87.6238 14.98337588 56783,6950.169,96.107,574.338,569.73,0.0
55931.0,STARLINK-5897,PAYLOAD,2024-03-27 21:48:43,14.9833489,0.0003374,69.9974,298.9312,269.4693,90.608,0.00031988,3.726e-05,0.0,0 STARLINK-5897,1 55931U 23037T   24087.90883629  .00003726  00000-0  31988-3 0  9994,2 55931  69.9974 298.9312 0003374 269.4693  90.6080 14.98334890 56877,6950.178,96.107,574.388,569.698,0.0
55931.0,STARLINK-5897,PAYLOAD,2024-03-27 23:24:51,14.98336989,0.0003374,69.9974,298.763,270.057,90.0202,0.0003427,3.999e-05,0.0,0 STARLINK-5897,1 55931U 23037T   24087.97559416  .00003999  00000-0  34270-3 0  9994,2 55931  69.9974 298.7630 0003374 270.0570  90.0202 14.98336989 57221,6950.171,96.107,574.381,569.691,0.0
55931.0,STARLINK-5897,PAYLOAD,2024-03-28 07:25:32,14.9833181,0.0003035,69.9985,297.9218,275.2933,84.788,0.00021426,2.465e-05,0.0,0 STARLINK-5897,1 55931U 23037T   24088.30940091  .00002465  00000-0  21426-3 0  9991,2 55931  69.9985 297.9218 0003035 275.2933  84.7880 14.98331810 57275,6950.187,96.107,574.162,569.943,0.0
55931.0,STARLINK-5897,PAYLOAD,2024-03-28 13:50:04,14.98337511,0.0003275,69.9981,297.2476,268.5291,91.5493,8.1655e-05,8.82e-06,0.0,0 STARLINK-5897,1 55931U 23037T   24088.57643821  .00000882  00000-0  81655-4 0  9993,2 55931  69.9981 297.2476 0003275 268.5291  91.5493 14.98337511 56974,6950.17,96.107,574.311,569.758,0.0
55931.0,STARLINK-5897,PAYLOAD,2024-03-28 21:50:44,14.98330711,0.0003276,69.9985,296.4063,268.9646,91.1137,0.00016297,1.852e-05,0.0,0 STARLINK-5897,1 55931U 23037T   24088.91023804  .00001852  00000-0  16297-3 0  9991,2 55931  69.9985 296.4063 0003276 268.9646  91.1137 14.98330711 57023,6950.191,96.107,574.333,569.779,0.0
55931.0,STARLINK-5897,PAYLOAD,2024-03-29 13:52:04,14.98336654,0.0003139,69.9984,294.7218,266.6076,93.4723,3.9443e-05,3.78e-06,0.0,0 STARLINK-5897,1 55931U 23037T   24089.57783205  .00000378  00000-0  39443-4 0  9993,2 55931  69.9984 294.7218 0003139 266.6076  93.4723 14.98336654 57461,6950.172,96.107,574.219,569.856,0.0
55931.0,STARLINK-5897,PAYLOAD,2024-03-29 21:52:44,14.98341892,0.000313,69.9983,293.8814,267.8815,92.1985,-9.9675e-05,-1.283e-05,0.0,0 STARLINK-5897,1 55931U 23037T   24089.91162991 -.00001283  00000-0 -99675-4 0  9995,2 55931  69.9983 293.8814 0003130 267.8815  92.1985 14.98341892 57171,6950.156,96.106,574.197,569.846,0.0
